STARLINK-6067           
1 56816U 23078BB  26168.13032073  .00000125  00000+0  18285-4 0  9993
2 56816  70.0002  73.5346 0002948 270.7192  89.3629 14.98331288168072
STARLINK-6028           
1 56818U 23078BD  26168.08882911  .00003905  00000+0  33477-3 0  9991
2 56818  70.0018  93.6587 0002907 269.7929  90.2897 14.98340105168269
STARLINK-30119          
1 56823U 23079A   26167.99905200  .00000723  00000+0  35825-4 0  9999
2 56823  43.0087 266.4385 0002288 273.3868  86.6722 15.27581356168503
STARLINK-30120          
1 56824U 23079B   26167.55548459 -.00000233  00000+0  10427-5 0  9990
2 56824  43.0015 269.1326 0001201 262.1848  97.8867 15.27575478168320
STARLINK-30084          
1 56825U 23079C   26167.56048208  .00000438  00000+0  25433-4 0  9997
2 56825  43.0061 268.3183 0000857 265.7729  94.3025 15.27576153168012
STARLINK-30114          
1 56826U 23079D   26167.99131056  .00000268  00000+0  19281-4 0  9994
2 56826  43.0045 266.1924 0001893 271.6710  88.3925 15.27577166168388
STARLINK-30151          
1 56827U 23079E   26167.98234325  .00000601  00000+0  31366-4 0  9996
2 56827  43.0038 266.3045 0001345 275.2813  84.7885 15.27580658168074
STARLINK-30152          
1 56828U 23079F   26167.98619813  .00001671  00000+0  70204-4 0  9998
2 56828  43.0034 266.3436 0001253 278.2615  81.8095 15.27586670168077
STARLINK-30128          
1 56832U 23079K   26167.50467026  .00000910  00000+0  42587-4 0  9996
2 56832  43.0048 243.1781 0001153 284.7766  75.2958 15.27581221161896
STARLINK-30131          
1 56833U 23079L   26167.92619293  .00012679  00000+0  51936-3 0  9990
2 56833  42.9988 244.7764 0002653 340.5489  19.5260 15.24211740168319
STARLINK-30069          
1 56834U 23079M   26167.98284789 -.00001220  00000+0 -34856-4 0  9990
2 56834  42.9979 262.9105 0000752 305.1779  54.9002 15.27568403168117
STARLINK-30144          
1 56835U 23079N   26167.97613476  .00080132  00000+0  19883-2 0  9997
2 56835  42.9891 258.4732 0013254   8.1857 351.9213 15.39325295168167
STARLINK-30142          
1 56836U 23079P   26167.99440519  .00000555  00000+0  29700-4 0  9998
2 56836  43.0057 262.9929 0001820 273.6995  86.3649 15.27581086168116
STARLINK-30133          
1 56837U 23079Q   26167.55919300  .00001024  00000+0  46727-4 0  9990
2 56837  43.0043 268.2903 0001085 249.6265 110.4471 15.27576609168015
STARLINK-30123          
1 56838U 23079R   26167.79902788  .00000817  00000+0  39193-4 0  9997
2 56838  43.0012 194.2242 0001328 274.8929  85.1771 15.27582549168902
STARLINK-30076          
1 56839U 23079S   26168.00002315 -.00026567  00000+0 -95949-3 0  9992
2 56839  43.0015 266.1805 0001967 266.5511 198.0002 15.27573880  5824
STARLINK-30073          
1 56840U 23079T   26168.50003471 -.00029360  00000+0 -10611-2 0  9999
2 56840  43.0010  88.6995 0001507 267.0456 261.2285 15.27595143  5903
STARLINK-30078          
1 56841U 23079U   26167.84972468 -.00001537  00000+0 -46373-4 0  9999
2 56841  43.0019 219.3617 0001302 271.6834  88.3868 15.27567720168614
STARLINK-30135          
1 56842U 23079V   26167.99518708  .00000099  00000+0  13113-4 0  9995
2 56842  43.0017 266.3167 0001646 287.2207  72.8465 15.27571364168073
STARLINK-30137          
1 56843U 23079W   26168.16692966 -.00000175  00000+0  31707-5 0  9991
2 56843  43.0061 265.0197 0001939 282.0233  78.0401 15.27575388168101
STARLINK-30136          
1 56844U 23079X   26167.98489519  .00000863  00000+0  40873-4 0  9995
2 56844  43.0013 266.2276 0000768 280.9192  79.1573 15.27584704168070
STARLINK-6206           
1 56876U 23083A   26167.91842972 -.00000177  00000+0  30886-5 0  9997
2 56876  43.0006 245.0236 0001122 273.4825  86.5899 15.27579826166804
STARLINK-6209           
1 56877U 23083B   26167.94140795 -.00000271  00000+0 -31629-6 0  9998
2 56877  43.0026 244.3327 0002126 272.6814  87.3794 15.27579966166813
STARLINK-6182           
1 56878U 23083C   26167.53253951  .00000707  00000+0  35190-4 0  9990
2 56878  42.9916 247.2857 0000847 287.7254  72.3505 15.27580244166740
STARLINK-5707           
1 56879U 23083D   26167.92870602  .00000007  00000+0  97949-5 0  9996
2 56879  43.0071 245.0966 0001706 286.5886  73.4778 15.27579614166805
STARLINK-6177           
1 56880U 23083E   26167.90043926  .00000453  00000+0  25998-4 0  9996
2 56880  43.0003 244.8879 0001274 275.4669  84.6037 15.27577123166803
STARLINK-5853           
1 56881U 23083F   26167.93256302  .00000506  00000+0  27916-4 0  9995
2 56881  43.0027 245.1246 0001623 285.3906  74.6766 15.27576484166801
STARLINK-6175           
1 56882U 23083G   26167.50169486  .00000666  00000+0  33728-4 0  9990
2 56882  43.0003 247.0527 0001090 254.4525 105.6206 15.27580884166747
STARLINK-6171           
1 56883U 23083H   26165.53238953  .00000405  00000+0  24264-4 0  9994
2 56883  43.0084 258.0773 0001928 280.8817  79.1818 15.27580896166443
STARLINK-5515           
1 56884U 23083J   26167.93884110  .00000481  00000+0  27023-4 0  9993
2 56884  43.0042 244.3112 0001727 257.7093 102.3565 15.27579053166811
