OBJECT_NAME,OBJECT_ID,EPOCH,MEAN_MOTION,ECCENTRICITY,INCLINATION,RA_OF_ASC_NODE,ARG_OF_PERICENTER,MEAN_ANOMALY,EPHEMERIS_TYPE,CLASSIFICATION_TYPE,NORAD_CAT_ID,ELEMENT_SET_NO,REV_AT_EPOCH,BSTAR,MEAN_MOTION_DOT,MEAN_MOTION_DDOT
STARLINK-6067,2023-078BB,2026-06-17T03:07:39.711072,14.98331288,.0002948,70.0002,73.5346,270.7192,89.3629,0,U,56816,999,16807,.18285E-4,.125E-5,0
STARLINK-6028,2023-078BD,2026-06-17T02:07:54.835104,14.98340105,.0002907,70.0018,93.6587,269.7929,90.2897,0,U,56818,999,16826,.33477E-3,.3905E-4,0
STARLINK-30119,2023-079A,2026-06-16T23:58:38.092800,15.27581356,.0002288,43.0087,266.4385,273.3868,86.6722,0,U,56823,999,16850,.35825E-4,.723E-5,0
STARLINK-30120,2023-079B,2026-06-16T13:19:53.868576,15.27575478,.00012014,43.0015,269.1326,262.1848,97.8867,0,U,56824,999,16832,.1042708E-5,-.233E-5,0
STARLINK-30084,2023-079C,2026-06-16T13:27:05.651712,15.27576153,.0000857,43.0061,268.3183,265.7729,94.3025,0,U,56825,999,16801,.25433E-4,.438E-5,0
STARLINK-30114,2023-079D,2026-06-16T23:47:29.232384,15.27577166,.0001893,43.0045,266.1924,271.6710,88.3925,0,U,56826,999,16838,.19281E-4,.268E-5,0
STARLINK-30151,2023-079E,2026-06-16T23:34:34.456800,15.27580658,.0001345,43.0038,266.3045,275.2813,84.7885,0,U,56827,999,16807,.31366E-4,.601E-5,0
STARLINK-30152,2023-079F,2026-06-16T23:40:07.518432,15.27586670,.0001253,43.0034,266.3436,278.2615,81.8095,0,U,56828,999,16807,.70204E-4,.1671E-4,0
STARLINK-30128,2023-079K,2026-06-16T12:06:43.510464,15.27581221,.00011533,43.0048,243.1781,284.7766,75.2958,0,U,56832,999,16189,.42587454E-4,.91E-5,0
STARLINK-30131,2023-079L,2026-06-16T22:13:43.069152,15.24211740,.0002653,42.9988,244.7764,340.5489,19.5260,0,U,56833,999,16831,.51936E-3,.12679E-3,0
STARLINK-30069,2023-079M,2026-06-16T23:35:18.057696,15.27568403,.0000752,42.9979,262.9105,305.1779,54.9002,0,U,56834,999,16811,-.34856E-4,-.122E-4,0
STARLINK-30144,2023-079N,2026-06-16T23:25:38.043264,15.39325295,.0013254,42.9891,258.4732,8.1857,351.9213,0,U,56835,999,16816,.19883E-2,.80132E-3,0
STARLINK-30142,2023-079P,2026-06-16T23:51:56.608416,15.27581086,.000182,43.0057,262.9929,273.6995,86.3649,0,U,56836,999,16811,.297E-4,.555E-5,0
STARLINK-30133,2023-079Q,2026-06-16T13:25:14.275200,15.27576609,.00010852,43.0043,268.2903,249.6265,110.4471,0,U,56837,999,16801,.46726867E-4,.1024E-4,0
STARLINK-30123,2023-079R,2026-06-16T19:10:36.008832,15.27582549,.0001328,43.0012,194.2242,274.8929,85.1771,0,U,56838,999,16890,.39193E-4,.817E-5,0
STARLINK-30076,2023-079S,2026-06-17T00:00:02.000160,15.27573880,.0001967,43.0015,266.1805,266.5511,198.0002,0,U,56839,999,582,-.95949E-3,-.26567E-3,0
STARLINK-30073,2023-079T,2026-06-17T12:00:02.998944,15.27595143,.0001507,43.0010,88.6995,267.0456,261.2285,0,U,56840,999,590,-.10611E-2,-.2936E-3,0
STARLINK-30078,2023-079U,2026-06-16T20:23:36.212352,15.27567720,.0001302,43.0019,219.3617,271.6834,88.3868,0,U,56841,999,16861,-.46373E-4,-.1537E-4,0
STARLINK-30135,2023-079V,2026-06-16T23:53:04.163712,15.27571364,.0001646,43.0017,266.3167,287.2207,72.8465,0,U,56842,999,16807,.13113E-4,.99E-6,0
STARLINK-30137,2023-079W,2026-06-17T04:00:22.722624,15.27575388,.0001939,43.0061,265.0197,282.0233,78.0401,0,U,56843,999,16810,.31707E-5,-.175E-5,0
STARLINK-30136,2023-079X,2026-06-16T23:38:14.944416,15.27584704,.0000768,43.0013,266.2276,280.9192,79.1573,0,U,56844,999,16807,.40873E-4,.863E-5,0
STARLINK-6206,2023-083A,2026-06-16T22:02:32.327808,15.27579826,.0001122,43.0006,245.0236,273.4825,86.5899,0,U,56876,999,16680,.30886E-5,-.177E-5,0
STARLINK-6209,2023-083B,2026-06-16T22:35:37.646880,15.27579966,.0002126,43.0026,244.3327,272.6814,87.3794,0,U,56877,999,16681,-.31629E-6,-.271E-5,0
STARLINK-6182,2023-083C,2026-06-16T12:46:51.413664,15.27580244,.00008477,42.9916,247.2857,287.7254,72.3505,0,U,56878,999,16674,.35190185E-4,.707E-5,0
STARLINK-5707,2023-083D,2026-06-16T22:17:20.200128,15.27579614,.0001706,43.0071,245.0966,286.5886,73.4778,0,U,56879,999,16680,.97949E-5,.7E-7,0
STARLINK-6177,2023-083E,2026-06-16T21:36:37.952064,15.27577123,.0001274,43.0003,244.8879,275.4669,84.6037,0,U,56880,999,16680,.25998E-4,.453E-5,0
STARLINK-5853,2023-083F,2026-06-16T22:22:53.444928,15.27576484,.0001623,43.0027,245.1246,285.3906,74.6766,0,U,56881,999,16680,.27916E-4,.506E-5,0
STARLINK-6175,2023-083G,2026-06-16T12:02:26.435904,15.27580884,.00010903,43.0003,247.0527,254.4525,105.6206,0,U,56882,999,16674,.33727718E-4,.666E-5,0
STARLINK-6171,2023-083H,2026-06-14T12:46:38.455392,15.27580896,.00019286,43.0084,258.0773,280.8817,79.1818,0,U,56883,999,16644,.242644E-4,.405E-5,0
STARLINK-5515,2023-083J,2026-06-16T22:31:55.871040,15.27579053,.0001727,43.0042,244.3112,257.7093,102.3565,0,U,56884,999,16681,.27023E-4,.481E-5,0
